CCSDS_OMM_VERS = 2.0
CREATION_DATE  = 
ORIGINATOR     = 

OBJECT_NAME    = STARLINK-35819
OBJECT_ID      = 2025-247W
CENTER_NAME    = EARTH
REF_FRAME      = TEME
TIME_SYSTEM    = UTC
MEAN_ELEMENT_THEORY = SGP/SGP4

EPOCH          = 2025-11-25T09:48:54.760032
MEAN_MOTION    = 15.49342580
ECCENTRICITY   = .0001255
INCLINATION    = 53.1590
RA_OF_ASC_NODE = 318.9460
ARG_OF_PERICENTER = 98.9596
MEAN_ANOMALY   = 261.1555

EPHEMERIS_TYPE = 0
CLASSIFICATION_TYPE = U
NORAD_CAT_ID   = 66285
ELEMENT_SET_NO = 999
REV_AT_EPOCH   = 502
BSTAR          = .1739E-2
MEAN_MOTION_DOT = .97597E-3
MEAN_MOTION_DDOT = 0

CCSDS_OMM_VERS = 2.0
CREATION_DATE  = 
ORIGINATOR     = 

OBJECT_NAME    = STARLINK-35783
OBJECT_ID      = 2025-247X
CENTER_NAME    = EARTH
REF_FRAME      = TEME
TIME_SYSTEM    = UTC
MEAN_ELEMENT_THEORY = SGP/SGP4

EPOCH          = 2025-11-25T11:21:19.840320
MEAN_MOTION    = 15.49371304
ECCENTRICITY   = .0000927
INCLINATION    = 53.1591
RA_OF_ASC_NODE = 318.6350
ARG_OF_PERICENTER = 127.1140
MEAN_ANOMALY   = 232.9954

EPHEMERIS_TYPE = 0
CLASSIFICATION_TYPE = U
NORAD_CAT_ID   = 66286
ELEMENT_SET_NO = 999
REV_AT_EPOCH   = 503
BSTAR          = .15311E-2
MEAN_MOTION_DOT = .85834E-3
MEAN_MOTION_DDOT = 0

CCSDS_OMM_VERS = 2.0
CREATION_DATE  = 
ORIGINATOR     = 

OBJECT_NAME    = STARLINK-34884
OBJECT_ID      = 2025-247Y
CENTER_NAME    = EARTH
REF_FRAME      = TEME
TIME_SYSTEM    = UTC
MEAN_ELEMENT_THEORY = SGP/SGP4

EPOCH          = 2025-11-25T09:47:54.699936
MEAN_MOTION    = 15.49299185
ECCENTRICITY   = .0001452
INCLINATION    = 53.1591
RA_OF_ASC_NODE = 318.9411
ARG_OF_PERICENTER = 88.3152
MEAN_ANOMALY   = 271.8023

EPHEMERIS_TYPE = 0
CLASSIFICATION_TYPE = U
NORAD_CAT_ID   = 66287
ELEMENT_SET_NO = 999
REV_AT_EPOCH   = 502
BSTAR          = .10707E-2
MEAN_MOTION_DOT = .59536E-3
MEAN_MOTION_DDOT = 0

CCSDS_OMM_VERS = 2.0
CREATION_DATE  = 
ORIGINATOR     = 

OBJECT_NAME    = STARLINK-34896
OBJECT_ID      = 2025-247Z
CENTER_NAME    = EARTH
REF_FRAME      = TEME
TIME_SYSTEM    = UTC
MEAN_ELEMENT_THEORY = SGP/SGP4

EPOCH          = 2025-11-25T09:47:25.738656
MEAN_MOTION    = 15.49321626
ECCENTRICITY   = .0001315
INCLINATION    = 53.1592
RA_OF_ASC_NODE = 318.9387
ARG_OF_PERICENTER = 96.8016
MEAN_ANOMALY   = 263.3143

EPHEMERIS_TYPE = 0
CLASSIFICATION_TYPE = U
NORAD_CAT_ID   = 66288
ELEMENT_SET_NO = 999
REV_AT_EPOCH   = 502
BSTAR          = .10554E-2
MEAN_MOTION_DOT = .58716E-3
MEAN_MOTION_DDOT = 0

CCSDS_OMM_VERS = 2.0
CREATION_DATE  = 
ORIGINATOR     = 

OBJECT_NAME    = STARLINK-35802
OBJECT_ID      = 2025-247AA
CENTER_NAME    = EARTH
REF_FRAME      = TEME
TIME_SYSTEM    = UTC
MEAN_ELEMENT_THEORY = SGP/SGP4

EPOCH          = 2025-11-25T09:46:55.979040
MEAN_MOTION    = 15.49319180
ECCENTRICITY   = .000113
INCLINATION    = 53.1589
RA_OF_ASC_NODE = 318.9364
ARG_OF_PERICENTER = 92.7924
MEAN_ANOMALY   = 267.3214

EPHEMERIS_TYPE = 0
CLASSIFICATION_TYPE = U
NORAD_CAT_ID   = 66289
ELEMENT_SET_NO = 999
REV_AT_EPOCH   = 502
BSTAR          = .61302E-3
MEAN_MOTION_DOT = .33805E-3
MEAN_MOTION_DDOT = 0

CCSDS_OMM_VERS = 2.0
CREATION_DATE  = 
ORIGINATOR     = 

OBJECT_NAME    = STARLINK-35799
OBJECT_ID      = 2025-247AB
CENTER_NAME    = EARTH
REF_FRAME      = TEME
TIME_SYSTEM    = UTC
MEAN_ELEMENT_THEORY = SGP/SGP4

EPOCH          = 2025-11-25T06:40:39.302688
MEAN_MOTION    = 15.49314106
ECCENTRICITY   = .0001181
INCLINATION    = 53.1600
RA_OF_ASC_NODE = 319.5498
ARG_OF_PERICENTER = 66.6630
MEAN_ANOMALY   = 293.4504

EPHEMERIS_TYPE = 0
CLASSIFICATION_TYPE = U
NORAD_CAT_ID   = 66290
ELEMENT_SET_NO = 999
REV_AT_EPOCH   = 505
BSTAR          = .1667566E-2
MEAN_MOTION_DOT = .93428E-3
MEAN_MOTION_DDOT = 0

CCSDS_OMM_VERS = 2.0
CREATION_DATE  = 
ORIGINATOR     = 

OBJECT_NAME    = STARLINK-35800
OBJECT_ID      = 2025-247AC
CENTER_NAME    = EARTH
REF_FRAME      = TEME
TIME_SYSTEM    = UTC
MEAN_ELEMENT_THEORY = SGP/SGP4

EPOCH          = 2025-11-25T09:45:27.093312
MEAN_MOTION    = 15.49321332
ECCENTRICITY   = .0001192
INCLINATION    = 53.1590
RA_OF_ASC_NODE = 318.9290
ARG_OF_PERICENTER = 98.0967
MEAN_ANOMALY   = 262.0178

EPHEMERIS_TYPE = 0
CLASSIFICATION_TYPE = U
NORAD_CAT_ID   = 66291
ELEMENT_SET_NO = 999
REV_AT_EPOCH   = 507
BSTAR          = .1074E-2
MEAN_MOTION_DOT = .59767E-3
MEAN_MOTION_DDOT = 0

CCSDS_OMM_VERS = 2.0
CREATION_DATE  = 
ORIGINATOR     = 

OBJECT_NAME    = STARLINK-35798
OBJECT_ID      = 2025-247AD
CENTER_NAME    = EARTH
REF_FRAME      = TEME
TIME_SYSTEM    = UTC
MEAN_ELEMENT_THEORY = SGP/SGP4

EPOCH          = 2025-11-25T09:45:56.702592
MEAN_MOTION    = 15.49332868
ECCENTRICITY   = .0001267
INCLINATION    = 53.1591
RA_OF_ASC_NODE = 318.9313
ARG_OF_PERICENTER = 86.8845
MEAN_ANOMALY   = 273.2309

EPHEMERIS_TYPE = 0
CLASSIFICATION_TYPE = U
NORAD_CAT_ID   = 66292
ELEMENT_SET_NO = 999
REV_AT_EPOCH   = 502
BSTAR          = .14929E-2
MEAN_MOTION_DOT = .83544E-3
MEAN_MOTION_DDOT = 0

CCSDS_OMM_VERS = 2.0
CREATION_DATE  = 
ORIGINATOR     = 

OBJECT_NAME    = CMS-03 (GSAT-7R)
OBJECT_ID      = 2025-249B
CENTER_NAME    = EARTH
REF_FRAME      = TEME
TIME_SYSTEM    = UTC
MEAN_ELEMENT_THEORY = SGP/SGP4

EPOCH          = 2025-11-25T11:00:32.446368
MEAN_MOTION    = 1.00271797
ECCENTRICITY   = .0004532
INCLINATION    = 0.1853
RA_OF_ASC_NODE = 271.7032
ARG_OF_PERICENTER = 196.4520
MEAN_ANOMALY   = 215.1616

EPHEMERIS_TYPE = 0
CLASSIFICATION_TYPE = U
NORAD_CAT_ID   = 66311
ELEMENT_SET_NO = 999
REV_AT_EPOCH   = 31
BSTAR          = 0
MEAN_MOTION_DOT = -.239E-5
MEAN_MOTION_DDOT = 0

CCSDS_OMM_VERS = 2.0
CREATION_DATE  = 
ORIGINATOR     = 

OBJECT_NAME    = YAOGAN-46
OBJECT_ID      = 2025-250A
CENTER_NAME    = EARTH
REF_FRAME      = TEME
TIME_SYSTEM    = UTC
MEAN_ELEMENT_THEORY = SGP/SGP4

EPOCH          = 2025-11-19T17:03:07.460064
MEAN_MOTION    = 5.35115933
ECCENTRICITY   = .00492424
INCLINATION    = 20.0323
RA_OF_ASC_NODE = 106.9378
ARG_OF_PERICENTER = 131.7872
MEAN_ANOMALY   = 228.6447

EPHEMERIS_TYPE = 0
CLASSIFICATION_TYPE = U
NORAD_CAT_ID   = 66313
ELEMENT_SET_NO = 999
REV_AT_EPOCH   = 96
BSTAR          = 0
MEAN_MOTION_DOT = -.9E-7
MEAN_MOTION_DDOT = 0

CCSDS_OMM_VERS = 2.0
CREATION_DATE  = 
ORIGINATOR     = 

OBJECT_NAME    = SENTINEL-1D
OBJECT_ID      = 2025-251A
CENTER_NAME    = EARTH
REF_FRAME      = TEME
TIME_SYSTEM    = UTC
MEAN_ELEMENT_THEORY = SGP/SGP4

EPOCH          = 2025-11-25T10:46:07.514112
MEAN_MOTION    = 14.59751188
ECCENTRICITY   = .0001452
INCLINATION    = 98.1939
RA_OF_ASC_NODE = 334.6996
ARG_OF_PERICENTER = 181.1668
MEAN_ANOMALY   = 178.9529

EPHEMERIS_TYPE = 0
CLASSIFICATION_TYPE = U
NORAD_CAT_ID   = 66315
ELEMENT_SET_NO = 999
REV_AT_EPOCH   = 301
BSTAR          = .54741E-4
MEAN_MOTION_DOT = .215E-5
MEAN_MOTION_DDOT = 0

