STARLINK-35819          
1 66285U 25247W   25329.40896713  .00097597  00000+0  17390-2 0  9994
2 66285  53.1590 318.9460 0001255  98.9596 261.1555 15.49342580  5025
STARLINK-35783          
1 66286U 25247X   25329.47314630  .00085834  00000+0  15311-2 0  9997
2 66286  53.1591 318.6350 0000927 127.1140 232.9954 15.49371304  5033
STARLINK-34884          
1 66287U 25247Y   25329.40827199  .00059536  00000+0  10707-2 0  9994
2 66287  53.1591 318.9411 0001452  88.3152 271.8023 15.49299185  5024
STARLINK-34896          
1 66288U 25247Z   25329.40793679  .00058716  00000+0  10554-2 0  9999
2 66288  53.1592 318.9387 0001315  96.8016 263.3143 15.49321626  5024
STARLINK-35802          
1 66289U 25247AA  25329.40759235  .00033805  00000+0  61302-3 0  9990
2 66289  53.1589 318.9364 0001130  92.7924 267.3214 15.49319180  5029
STARLINK-35799          
1 66290U 25247AB  25329.27823267  .00093428  00000+0  16676-2 0  9994
2 66290  53.1600 319.5498 0001181  66.6630 293.4504 15.49314106  5058
STARLINK-35800          
1 66291U 25247AC  25329.40656358  .00059767  00000+0  10740-2 0  9999
2 66291  53.1590 318.9290 0001192  98.0967 262.0178 15.49321332  5074
STARLINK-35798          
1 66292U 25247AD  25329.40690628  .00083544  00000+0  14929-2 0  9991
2 66292  53.1591 318.9313 0001267  86.8845 273.2309 15.49332868  5026
CMS-03 (GSAT-7R)        
1 66311U 25249B   25329.45870887 -.00000239  00000+0  00000+0 0  9990
2 66311   0.1853 271.7032 0004532 196.4520 215.1616  1.00271797   319
YAOGAN-46               
1 66313U 25250A   25323.71050301 -.00000009  00000+0  00000+0 0  9993
2 66313  20.0323 106.9378 0049242 131.7872 228.6447  5.35115933   968
SENTINEL-1D             
1 66315U 25251A   25329.44869808  .00000215  00000+0  54741-4 0  9996
2 66315  98.1939 334.6996 0001452 181.1668 178.9529 14.59751188  3019
